SENTINEL-3A             
1 41335U 16011A   26188.48410257  .00000074  00000+0  48408-4 0  9999
2 41335  98.6240 255.5754 0001410  92.6218 267.5124 14.26738310540959
SENTINEL-3B             
1 43437U 18039A   26188.17671325  .00000082  00000+0  51893-4 0  9998
2 43437  98.6239 255.4214 0000963 118.9874 241.1403 14.26740486426974
